NORAD_CAT_ID,OBJECT_NAME,OBJECT_TYPE,EPOCH,MEAN_MOTION,ECCENTRICITY,INCLINATION,RA_OF_ASC_NODE,ARG_OF_PERICENTER,MEAN_ANOMALY,BSTAR,MEAN_MOTION_DOT,MEAN_MOTION_DDOT,TLE_LINE0,TLE_LINE1,TLE_LINE2,SEMIMAJOR_AXIS,PERIOD,APOGEE,PERIGEE,DECAYED
55789.0,STARLINK-5815,PAYLOAD,2024-06-15 21:58:04,14.9833491,0.0002858,70.0001,357.3384,268.4327,91.6505,-1.8556e-05,-3.14e-06,0.0,0 STARLINK-5815,1 55789U 23028BA  24167.91532844 -.00000314  00000-0 -18556-4 0  9994,2 55789  70.0001 357.3384 0002858 268.4327  91.6505 14.98334910 72391,6950.178,96.107,574.029,570.056,0.0
55789.0,STARLINK-5815,PAYLOAD,2024-06-16 13:59:25,14.98329014,0.0002852,69.9999,355.6547,268.1894,91.8939,1.0043e-05,2.7e-07,0.0,0 STARLINK-5815,1 55789U 23028BA  24168.58293026  .00000027  00000-0  10043-4 0  9996,2 55789  69.9999 355.6547 0002852 268.1894  91.8939 14.98329014 72499,6950.196,96.107,574.043,570.079,0.0
55789.0,STARLINK-5815,PAYLOAD,2024-06-16 22:00:05,14.98329044,0.0002861,70.0,354.813,267.8825,92.2007,3.0198e-06,-5.7e-07,0.0,0 STARLINK-5815,1 55789U 23028BA  24168.91673051 -.00000057  00000-0  30198-5 0  9991,2 55789  70.0000 354.8130 0002861 267.8825  92.2007 14.98329044 72544,6950.196,96.107,574.049,570.072,0.0
55789.0,STARLINK-5815,PAYLOAD,2024-06-17 20:25:58,14.98328549,0.0002978,69.9998,352.4559,269.0174,91.0644,-4.1531e-05,-5.88e-06,0.0,0 STARLINK-5815,1 55789U 23028BA  24169.85137259 -.00000588  00000-0 -41531-4 0  9992,2 55789  69.9998 352.4559 0002978 269.0174  91.0644 14.98328549 72673,6950.197,96.107,574.132,569.993,0.0
55789.0,STARLINK-5815,PAYLOAD,2024-06-17 22:02:06,14.9832895,0.0002974,69.9999,352.2876,269.0393,91.0425,-3.6083e-05,-5.23e-06,0.0,0 STARLINK-5815,1 55789U 23028BA  24169.91813224 -.00000523  00000-0 -36083-4 0  9997,2 55789  69.9999 352.2876 0002974 269.0393  91.0425 14.98328950 72698,6950.196,96.107,574.128,569.994,0.0
55789.0,STARLINK-5815,PAYLOAD,2024-06-18 14:03:27,14.9832982,0.0003008,69.9999,350.6041,269.3283,90.7532,1.0881e-05,3.7e-07,0.0,0 STARLINK-5815,1 55789U 23028BA  24170.58573058  .00000037  00000-0  10881-4 0  9996,2 55789  69.9999 350.6041 0003008 269.3283  90.7532 14.98329820 72797,6950.193,96.107,574.149,569.968,0.0
55789.0,STARLINK-5815,PAYLOAD,2024-06-18 20:27:59,14.98331043,0.0003041,69.9999,349.9311,269.7875,90.2936,2.2575e-05,1.76e-06,0.0,0 STARLINK-5815,1 55789U 23028BA  24170.85276944  .00000176  00000-0  22575-4 0  9997,2 55789  69.9999 349.9311 0003041 269.7875  90.2936 14.98331043 72834,6950.19,96.107,574.168,569.941,0.0
55789.0,STARLINK-5815,PAYLOAD,2024-06-19 14:05:28,14.98327542,0.0003038,69.9999,348.0795,269.7819,90.2992,2.1341e-05,1.62e-06,0.0,0 STARLINK-5815,1 55789U 23028BA  24171.58713170  .00000162  00000-0  21341-4 0  9990,2 55789  69.9999 348.0795 0003038 269.7819  90.2992 14.98327542 72947,6950.2,96.107,574.177,569.954,0.0
55789.0,STARLINK-5815,PAYLOAD,2024-06-19 20:30:00,14.98329701,0.0003083,69.9999,347.4063,270.0912,89.9894,1.8428e-05,1.27e-06,0.0,0 STARLINK-5815,1 55789U 23028BA  24171.85417050  .00000127  00000-0  18428-4 0  9991,2 55789  69.9999 347.4063 0003083 270.0912  89.9894 14.98329701 72975,6950.194,96.107,574.202,569.916,0.0
55789.0,STARLINK-5815,PAYLOAD,2024-06-19 22:06:08,14.98330119,0.000308,69.9999,347.238,270.121,89.9596,2.2512e-05,1.76e-06,0.0,0 STARLINK-5815,1 55789U 23028BA  24171.92093012  .00000176  00000-0  22512-4 0  9990,2 55789  69.9999 347.2380 0003080 270.1210  89.9596 14.98330119 72990,6950.193,96.107,574.198,569.917,0.0
55789.0,STARLINK-5815,PAYLOAD,2024-06-20 14:07:29,14.98329329,0.0003015,70.0001,345.5548,271.0487,89.0327,-1.5689e-05,-2.8e-06,0.0,0 STARLINK-5815,1 55789U 23028BA  24172.58853197 -.00000280  00000-0 -15689-4 0  9996,2 55789  70.0001 345.5548 0003015 271.0487  89.0327 14.98329329 73094,6950.195,96.107,574.155,569.964,0.0
55789.0,STARLINK-5815,PAYLOAD,2024-06-20 20:32:01,14.98330289,0.0002959,70.0002,344.882,268.7554,91.3266,-7.1944e-06,-1.79e-06,0.0,0 STARLINK-5815,1 55789U 23028BA  24172.85557098 -.00000179  00000-0 -71944-5 0  9991,2 55789  70.0002 344.8820 0002959 268.7554  91.3266 14.98330289 73123,6950.192,96.107,574.114,570.0,0.0
55789.0,STARLINK-5815,PAYLOAD,2024-06-21 14:09:29,14.98331195,0.0002967,70.0003,343.0305,268.709,91.3729,3.0189e-05,2.67e-06,0.0,0 STARLINK-5815,1 55789U 23028BA  24173.58992834  .00000267  00000-0  30189-4 0  9994,2 55789  70.0003 343.0305 0002967 268.7090  91.3729 14.98331195 73241,6950.189,96.107,574.116,569.992,0.0
55789.0,STARLINK-5815,PAYLOAD,2024-06-21 20:34:01,14.98331872,0.0002968,70.0003,342.3572,268.4924,91.5895,3.4994e-05,3.25e-06,0.0,0 STARLINK-5815,1 55789U 23028BA  24173.85696745  .00000325  00000-0  34994-4 0  9999,2 55789  70.0003 342.3572 0002968 268.4924  91.5895 14.98331872 73274,6950.187,96.107,574.115,569.989,0.0
55789.0,STARLINK-5815,PAYLOAD,2024-06-22 14:11:30,14.98328515,0.0002941,70.0004,340.5052,264.8281,95.2543,-5.2061e-06,-1.55e-06,0.0,0 STARLINK-5815,1 55789U 23028BA  24174.59132988 -.00000155  00000-0 -52061-5 0  9994,2 55789  70.0004 340.5052 0002941 264.8281  95.2543 14.98328515 73399,6950.197,96.107,574.107,570.018,0.0
55789.0,STARLINK-5815,PAYLOAD,2024-06-22 20:36:03,14.9832908,0.0003033,70.0001,339.8313,267.9022,92.179,-6.8979e-06,-1.75e-06,0.0,0 STARLINK-5815,1 55789U 23028BA  24174.85836978 -.00000175  00000-0 -68979-5 0  9990,2 55789  70.0001 339.8313 0003033 267.9022  92.1790 14.98329080 73429,6950.196,96.107,574.169,569.953,0.0
55789.0,STARLINK-5815,PAYLOAD,2024-06-23 14:13:31,14.98328919,0.0003023,70.0001,337.9798,267.6993,92.382,-4.4691e-05,-6.26e-06,0.0,0 STARLINK-5815,1 55789U 23028BA  24175.59273111 -.00000626  00000-0 -44691-4 0  9991,2 55789  70.0001 337.9798 0003023 267.6993  92.3820 14.98328919 73547,6950.196,96.107,574.162,569.96,0.0
55789.0,STARLINK-5815,PAYLOAD,2024-06-23 20:38:04,14.98331186,0.0002992,70.0002,337.3065,267.2894,92.7922,-1.433e-05,-2.64e-06,0.0,0 STARLINK-5815,1 55789U 23028BA  24175.85976875 -.00000264  00000-0 -14330-4 0  9992,2 55789  70.0002 337.3065 0002992 267.2894  92.7922 14.98331186 73579,6950.189,96.107,574.134,569.975,0.0
55789.0,STARLINK-5815,PAYLOAD,2024-06-24 14:15:32,14.98331847,0.0003028,70.0002,335.4546,268.4383,91.643,4.3816e-05,4.3e-06,0.0,0 STARLINK-5815,1 55789U 23028BA  24176.59412588  .00000430  00000-0  43816-4 0  9994,2 55789  70.0002 335.4546 0003028 268.4383  91.6430 14.98331847 73698,6950.187,96.107,574.157,569.948,0.0
55789.0,STARLINK-5815,PAYLOAD,2024-06-24 20:40:04,14.98334234,0.0003009,70.0003,334.7815,268.3924,91.6891,6.7769e-05,7.16e-06,0.0,0 STARLINK-5815,1 55789U 23028BA  24176.86116321  .00000716  00000-0  67769-4 0  9990,2 55789  70.0003 334.7815 0003009 268.3924  91.6891 14.98334234 73727,6950.18,96.107,574.136,569.953,0.0
55789.0,STARLINK-5815,PAYLOAD,2024-06-25 14:17:33,14.9833011,0.0002928,70.0006,332.931,265.0984,94.9841,4.6688e-06,-3.7e-07,0.0,0 STARLINK-5815,1 55789U 23028BA  24177.59552656 -.00000037  00000-0  46688-5 0  9991,2 55789  70.0006 332.9310 0002928 265.0984  94.9841 14.98330110 73842,6950.193,96.107,574.093,570.023,0.0
55789.0,STARLINK-5815,PAYLOAD,2024-06-25 20:42:05,14.98329743,0.0002882,70.0008,332.2581,263.8035,96.2796,4.3809e-06,-4.1e-07,0.0,0 STARLINK-5815,1 55789U 23028BA  24177.86256673 -.00000041  00000-0  43809-5 0  9998,2 55789  70.0008 332.2581 0002882 263.8035  96.2796 14.98329743 73876,6950.194,96.107,574.062,570.056,0.0
55789.0,STARLINK-5815,PAYLOAD,2024-06-26 11:07:18,14.98333214,0.0002974,70.0006,330.7421,268.6697,91.4121,-3.4971e-05,-5.1e-06,0.0,0 STARLINK-5815,1 55789U 23028BA  24178.46340513 -.00000510  00000-0 -34971-4 0  9993,2 55789  70.0006 330.7421 0002974 268.6697  91.4121 14.98333214 73977,6950.183,96.107,574.115,569.981,0.0
55789.0,STARLINK-5815,PAYLOAD,2024-06-27 12:45:27,14.98329348,0.0003127,70.0008,328.0499,264.7913,95.2889,2.9934e-05,2.64e-06,0.0,0 STARLINK-5815,1 55789U 23028BA  24179.53156366  .00000264  00000-0  29934-4 0  9990,2 55789  70.0008 328.0499 0003127 264.7913  95.2889 14.98329348 74127,6950.195,96.107,574.233,569.887,0.0
55789.0,STARLINK-5815,PAYLOAD,2024-06-27 17:33:51,14.98328207,0.0003148,70.0004,327.5438,269.4597,90.6201,1.9643e-05,1.41e-06,0.0,0 STARLINK-5815,1 55789U 23028BA  24179.73184492  .00000141  00000-0  19643-4 0  9993,2 55789  70.0004 327.5438 0003148 269.4597  90.6201 14.98328207 74167,6950.198,96.107,574.251,569.876,0.0
55789.0,STARLINK-5815,PAYLOAD,2024-06-28 12:47:28,14.98327868,0.0003274,70.0003,325.5238,271.6571,88.4213,1.5408e-05,9.1e-07,0.0,0 STARLINK-5815,1 55789U 23028BA  24180.53296478  .00000091  00000-0  15408-4 0  9990,2 55789  70.0003 325.5238 0003274 271.6571  88.4213 14.98327868 74271,6950.199,96.107,574.34,569.789,0.0
55789.0,STARLINK-5815,PAYLOAD,2024-06-28 14:23:36,14.98329709,0.0003238,70.0002,325.3557,271.8003,88.2785,2.7688e-05,2.37e-06,0.0,0 STARLINK-5815,1 55789U 23028BA  24180.59972333  .00000237  00000-0  27688-4 0  9992,2 55789  70.0002 325.3557 0003238 271.8003  88.2785 14.98329709 74294,6950.194,96.107,574.309,569.808,0.0
55789.0,STARLINK-5815,PAYLOAD,2024-06-28 19:11:59,14.98339149,0.0003185,70.0005,324.8512,271.2639,88.8155,9.2803e-05,1.015e-05,0.0,0 STARLINK-5815,1 55789U 23028BA  24180.79999483  .00001015  00000-0  92803-4 0  9995,2 55789  70.0005 324.8512 0003185 271.2639  88.8155 14.98339149 74311,6950.165,96.106,574.243,569.816,0.0
55789.0,STARLINK-5815,PAYLOAD,2024-06-29 12:49:29,14.98325783,0.0002903,69.9997,322.996,266.2684,93.8144,-5.1573e-05,-7.08e-06,0.0,0 STARLINK-5815,1 55789U 23028BA  24181.53436653 -.00000708  00000-0 -51573-4 0  9992,2 55789  69.9997 322.9960 0002903 266.2684  93.8144 14.98325783 74420,6950.206,96.107,574.089,570.053,0.0
55789.0,STARLINK-5815,PAYLOAD,2024-06-29 14:25:37,14.98324594,0.0002941,70.0,322.8285,266.7527,93.3296,-5.7652e-05,-7.81e-06,0.0,0 STARLINK-5815,1 55789U 23028BA  24181.60112762 -.00000781  00000-0 -57652-4 0  9997,2 55789  70.0000 322.8285 0002941 266.7527  93.3296 14.98324594 74444,6950.21,96.107,574.119,570.031,0.0
